[{"OBJECT_NAME":"PRAETORIAN SDA_609","OBJECT_ID":"2025-203H","EPOCH":"2026-03-09T13:17:17.896704","MEAN_MOTION":13.84314664,"ECCENTRICITY":0.0008251,"INCLINATION":81.302,"RA_OF_ASC_NODE":103.0603,"ARG_OF_PERICENTER":102.7158,"MEAN_ANOMALY":257.4922,"EPHEMERIS_TYPE":0,"CLASSIFICATION_TYPE":"U","NORAD_CAT_ID":65572,"ELEMENT_SET_NO":999,"REV_AT_EPOCH":2491,"BSTAR":0.00016281,"MEAN_MOTION_DOT":1.94e-6,"MEAN_MOTION_DDOT":0},{"OBJECT_NAME":"COSMOS 1027","OBJECT_ID":"1978-074A","EPOCH":"2026-03-09T14:42:05.637600","MEAN_MOTION":13.76687612,"ECCENTRICITY":0.0025521,"INCLINATION":82.9318,"RA_OF_ASC_NODE":91.2828,"ARG_OF_PERICENTER":308.2928,"MEAN_ANOMALY":171.7697,"EPHEMERIS_TYPE":0,"CLASSIFICATION_TYPE":"U","NORAD_CAT_ID":10991,"ELEMENT_SET_NO":999,"REV_AT_EPOCH":39140,"BSTAR":3.5733e-5,"MEAN_MOTION_DOT":5.0e-7,"MEAN_MOTION_DDOT":0}]
